[
  {
    "OBJECT_NAME": "STARLINK-30897",
    "OBJECT_ID": "23177K",
    "EPOCH": "2025-11-11T05:47:30.109344",
    "MEAN_MOTION": 15.02540487,
    "ECCENTRICITY": 0.0001253,
    "INCLINATION": 43.0044,
    "RA_OF_ASC_NODE": 275.5825,
    "ARG_OF_PERICENTER": 268.7005,
    "MEAN_ANOMALY": 91.3693,
    "EPHEMERIS_TYPE": 0,
    "CLASSIFICATION_TYPE": "U",
    "NORAD_CAT_ID": 58360,
    "ELEMENT_SET_NO": 999,
    "REV_AT_EPOCH": 11039,
    "BSTAR": 2.2881000000000003e-05,
    "MEAN_MOTION_DOT": 1.05e-06,
    "MEAN_MOTION_DDOT": 0.0,
    "TLE_LINE1": "1 58360U 23177K   25315.24132071  .00000105  00000+0  22881-4 0  9998",
    "TLE_LINE2": "2 58360  43.0044 275.5825 0001253 268.7005  91.3693 15.02540487110393",
    "COMMENT": "Grouped by shell and plane from TLE"
  },
  {
    "OBJECT_NAME": "STARLINK-30885",
    "OBJECT_ID": "23177L",
    "EPOCH": "2025-11-11T05:33:07.244640",
    "MEAN_MOTION": 15.02541181,
    "ECCENTRICITY": 0.0001231,
    "INCLINATION": 43.0051,
    "RA_OF_ASC_NODE": 275.5121,
    "ARG_OF_PERICENTER": 267.0949,
    "MEAN_ANOMALY": 92.9753,
    "EPHEMERIS_TYPE": 0,
    "CLASSIFICATION_TYPE": "U",
    "NORAD_CAT_ID": 58361,
    "ELEMENT_SET_NO": 999,
    "REV_AT_EPOCH": 11040,
    "BSTAR": 4.5508e-05,
    "MEAN_MOTION_DOT": 4.11e-06,
    "MEAN_MOTION_DDOT": 0.0,
    "TLE_LINE1": "1 58361U 23177L   25315.23133385  .00000411  00000+0  45508-4 0  9998",
    "TLE_LINE2": "2 58361  43.0051 275.5121 0001231 267.0949  92.9753 15.02541181110404",
    "COMMENT": "Grouped by shell and plane from TLE"
  },
  {
    "OBJECT_NAME": "STARLINK-30890",
    "OBJECT_ID": "23177M",
    "EPOCH": "2025-11-11T07:04:02.680608",
    "MEAN_MOTION": 15.02564246,
    "ECCENTRICITY": 8.63e-05,
    "INCLINATION": 43.0038,
    "RA_OF_ASC_NODE": 275.1248,
    "ARG_OF_PERICENTER": 273.9754,
    "MEAN_ANOMALY": 86.099,
    "EPHEMERIS_TYPE": 0,
    "CLASSIFICATION_TYPE": "U",
    "NORAD_CAT_ID": 58362,
    "ELEMENT_SET_NO": 999,
    "REV_AT_EPOCH": 11035,
    "BSTAR": 0.0,
    "MEAN_MOTION_DOT": -2.526e-05,
    "MEAN_MOTION_DDOT": 0.0,
    "TLE_LINE1": "1 58362U 23177M   25315.29447547 -.00002526  00000+0 -17187-3 0  9995",
    "TLE_LINE2": "2 58362  43.0038 275.1248 0000863 273.9754  86.0990 15.02564246110354",
    "COMMENT": "Grouped by shell and plane from TLE"
  },
  {
    "OBJECT_NAME": "STARLINK-30909",
    "OBJECT_ID": "23177N",
    "EPOCH": "2025-11-11T07:02:27.116160",
    "MEAN_MOTION": 15.0253843,
    "ECCENTRICITY": 0.0001398,
    "INCLINATION": 43.0027,
    "RA_OF_ASC_NODE": 275.1161,
    "ARG_OF_PERICENTER": 261.866,
    "MEAN_ANOMALY": 98.2024,
    "EPHEMERIS_TYPE": 0,
    "CLASSIFICATION_TYPE": "U",
    "NORAD_CAT_ID": 58363,
    "ELEMENT_SET_NO": 999,
    "REV_AT_EPOCH": 11040,
    "BSTAR": 7.8287e-05,
    "MEAN_MOTION_DOT": 8.54e-06,
    "MEAN_MOTION_DDOT": 0.0,
    "TLE_LINE1": "1 58363U 23177N   25315.29336940  .00000854  00000+0  78287-4 0  9999",
    "TLE_LINE2": "2 58363  43.0027 275.1161 0001398 261.8660  98.2024 15.02538430110408",
    "COMMENT": "Grouped by shell and plane from TLE"
  },
  {
    "OBJECT_NAME": "STARLINK-30904",
    "OBJECT_ID": "23177P",
    "EPOCH": "2025-11-11T07:06:43.550496",
    "MEAN_MOTION": 15.02546554,
    "ECCENTRICITY": 0.0001427,
    "INCLINATION": 43.0018,
    "RA_OF_ASC_NODE": 273.4258,
    "ARG_OF_PERICENTER": 265.21,
    "MEAN_ANOMALY": 94.8579,
    "EPHEMERIS_TYPE": 0,
    "CLASSIFICATION_TYPE": "U",
    "NORAD_CAT_ID": 58364,
    "ELEMENT_SET_NO": 999,
    "REV_AT_EPOCH": 11042,
    "BSTAR": 0.00019374,
    "MEAN_MOTION_DOT": 2.415e-05,
    "MEAN_MOTION_DDOT": 0.0,
    "TLE_LINE1": "1 58364U 23177P   25315.29633739  .00002415  00000+0  19374-3 0  9992",
    "TLE_LINE2": "2 58364  43.0018 273.4258 0001427 265.2100  94.8579 15.02546554110422",
    "COMMENT": "Grouped by shell and plane from TLE"
  },
  {
    "OBJECT_NAME": "STARLINK-30918",
    "OBJECT_ID": "23177Q",
    "EPOCH": "2025-11-11T06:49:40.241856",
    "MEAN_MOTION": 15.02531757,
    "ECCENTRICITY": 8.21e-05,
    "INCLINATION": 43.0036,
    "RA_OF_ASC_NODE": 275.0495,
    "ARG_OF_PERICENTER": 277.0025,
    "MEAN_ANOMALY": 83.0724,
    "EPHEMERIS_TYPE": 0,
    "CLASSIFICATION_TYPE": "U",
    "NORAD_CAT_ID": 58365,
    "ELEMENT_SET_NO": 999,
    "REV_AT_EPOCH": 11040,
    "BSTAR": 0.00010943,
    "MEAN_MOTION_DOT": 1.275e-05,
    "MEAN_MOTION_DDOT": 0.0,
    "TLE_LINE1": "1 58365U 23177Q   25315.28449354  .00001275  00000+0  10943-3 0  9996",
    "TLE_LINE2": "2 58365  43.0036 275.0495 0000821 277.0025  83.0724 15.02531757110407",
    "COMMENT": "Grouped by shell and plane from TLE"
  },
  {
    "OBJECT_NAME": "STARLINK-30892",
    "OBJECT_ID": "23177R",
    "EPOCH": "2025-11-11T05:18:43.299072",
    "MEAN_MOTION": 15.02578878,
    "ECCENTRICITY": 0.0001567,
    "INCLINATION": 43.0047,
    "RA_OF_ASC_NODE": 275.4341,
    "ARG_OF_PERICENTER": 270.3604,
    "MEAN_ANOMALY": 89.7059,
    "EPHEMERIS_TYPE": 0,
    "CLASSIFICATION_TYPE": "U",
    "NORAD_CAT_ID": 58366,
    "ELEMENT_SET_NO": 999,
    "REV_AT_EPOCH": 11040,
    "BSTAR": 0.0,
    "MEAN_MOTION_DOT": -8.953e-05,
    "MEAN_MOTION_DDOT": 0.0,
    "TLE_LINE1": "1 58366U 23177R   25315.22133448 -.00008953  00000+0 -64775-3 0  9999",
    "TLE_LINE2": "2 58366  43.0047 275.4341 0001567 270.3604  89.7059 15.02578878110400",
    "COMMENT": "Grouped by shell and plane from TLE"
  },
  {
    "OBJECT_NAME": "STARLINK-30891",
    "OBJECT_ID": "23177S",
    "EPOCH": "2025-11-11T05:09:06.344928",
    "MEAN_MOTION": 15.02614455,
    "ECCENTRICITY": 0.0001415,
    "INCLINATION": 43.0049,
    "RA_OF_ASC_NODE": 275.3843,
    "ARG_OF_PERICENTER": 264.5352,
    "MEAN_ANOMALY": 95.5329,
    "EPHEMERIS_TYPE": 0,
    "CLASSIFICATION_TYPE": "U",
    "NORAD_CAT_ID": 58367,
    "ELEMENT_SET_NO": 999,
    "REV_AT_EPOCH": 11033,
    "BSTAR": 0.0,
    "MEAN_MOTION_DOT": -0.00013503,
    "MEAN_MOTION_DDOT": 0.0,
    "TLE_LINE1": "1 58367U 23177S   25315.21465677 -.00013503  00000+0 -98433-3 0  9996",
    "TLE_LINE2": "2 58367  43.0049 275.3843 0001415 264.5352  95.5329 15.02614455110335",
    "COMMENT": "Grouped by shell and plane from TLE"
  },
  {
    "OBJECT_NAME": "STARLINK-30889",
    "OBJECT_ID": "23177T",
    "EPOCH": "2025-11-11T06:48:03.869568",
    "MEAN_MOTION": 15.0254153,
    "ECCENTRICITY": 0.0001033,
    "INCLINATION": 43.0035,
    "RA_OF_ASC_NODE": 275.0395,
    "ARG_OF_PERICENTER": 276.4079,
    "MEAN_ANOMALY": 83.6646,
    "EPHEMERIS_TYPE": 0,
    "CLASSIFICATION_TYPE": "U",
    "NORAD_CAT_ID": 58368,
    "ELEMENT_SET_NO": 999,
    "REV_AT_EPOCH": 11040,
    "BSTAR": 8.561e-05,
    "MEAN_MOTION_DOT": 9.53e-06,
    "MEAN_MOTION_DDOT": 0.0,
    "TLE_LINE1": "1 58368U 23177T   25315.28337812  .00000953  00000+0  85610-4 0  9990",
    "TLE_LINE2": "2 58368  43.0035 275.0395 0001033 276.4079  83.6646 15.02541530110405",
    "COMMENT": "Grouped by shell and plane from TLE"
  },
  {
    "OBJECT_NAME": "STARLINK-30870",
    "OBJECT_ID": "23177U",
    "EPOCH": "2025-11-11T05:05:56.493024",
    "MEAN_MOTION": 15.02543349,
    "ECCENTRICITY": 8.7e-05,
    "INCLINATION": 43.0029,
    "RA_OF_ASC_NODE": 275.3672,
    "ARG_OF_PERICENTER": 271.119,
    "MEAN_ANOMALY": 88.9552,
    "EPHEMERIS_TYPE": 0,
    "CLASSIFICATION_TYPE": "U",
    "NORAD_CAT_ID": 58369,
    "ELEMENT_SET_NO": 999,
    "REV_AT_EPOCH": 11039,
    "BSTAR": 0.00016364,
    "MEAN_MOTION_DOT": 2.008e-05,
    "MEAN_MOTION_DDOT": 0.0,
    "TLE_LINE1": "1 58369U 23177U   25315.21245941  .00002008  00000+0  16364-3 0  9997",
    "TLE_LINE2": "2 58369  43.0029 275.3672 0000870 271.1190  88.9552 15.02543349110396",
    "COMMENT": "Grouped by shell and plane from TLE"
  },
  {
    "OBJECT_NAME": "STARLINK-30888",
    "OBJECT_ID": "23177V",
    "EPOCH": "2025-11-11T06:00:17.810496",
    "MEAN_MOTION": 15.02542353,
    "ECCENTRICITY": 0.0001241,
    "INCLINATION": 43.0038,
    "RA_OF_ASC_NODE": 275.6366,
    "ARG_OF_PERICENTER": 275.6803,
    "MEAN_ANOMALY": 84.3898,
    "EPHEMERIS_TYPE": 0,
    "CLASSIFICATION_TYPE": "U",
    "NORAD_CAT_ID": 58370,
    "ELEMENT_SET_NO": 999,
    "REV_AT_EPOCH": 11040,
    "BSTAR": 0.0,
    "MEAN_MOTION_DOT": -1.418e-05,
    "MEAN_MOTION_DDOT": 0.0,
    "TLE_LINE1": "1 58370U 23177V   25315.25020614 -.00001418  00000+0 -89877-4 0  9997",
    "TLE_LINE2": "2 58370  43.0038 275.6366 0001241 275.6803  84.3898 15.02542353110403",
    "COMMENT": "Grouped by shell and plane from TLE"
  },
  {
    "OBJECT_NAME": "STARLINK-30859",
    "OBJECT_ID": "23177W",
    "EPOCH": "2025-11-11T05:45:53.341344",
    "MEAN_MOTION": 15.02542703,
    "ECCENTRICITY": 0.0001213,
    "INCLINATION": 43.0043,
    "RA_OF_ASC_NODE": 275.5429,
    "ARG_OF_PERICENTER": 267.7254,
    "MEAN_ANOMALY": 92.3449,
    "EPHEMERIS_TYPE": 0,
    "CLASSIFICATION_TYPE": "U",
    "NORAD_CAT_ID": 58371,
    "ELEMENT_SET_NO": 999,
    "REV_AT_EPOCH": 11040,
    "BSTAR": 0.00023518,
    "MEAN_MOTION_DOT": 2.975e-05,
    "MEAN_MOTION_DDOT": 0.0,
    "TLE_LINE1": "1 58371U 23177W   25315.24020071  .00002975  00000+0  23518-3 0  9990",
    "TLE_LINE2": "2 58371  43.0043 275.5429 0001213 267.7254  92.3449 15.02542703110400",
    "COMMENT": "Grouped by shell and plane from TLE"
  },
  {
    "OBJECT_NAME": "STARLINK-30884",
    "OBJECT_ID": "23177X",
    "EPOCH": "2025-11-11T06:33:39.765888",
    "MEAN_MOTION": 15.02568664,
    "ECCENTRICITY": 0.0001264,
    "INCLINATION": 43.0041,
    "RA_OF_ASC_NODE": 274.9621,
    "ARG_OF_PERICENTER": 266.4763,
    "MEAN_ANOMALY": 93.5935,
    "EPHEMERIS_TYPE": 0,
    "CLASSIFICATION_TYPE": "U",
    "NORAD_CAT_ID": 58372,
    "ELEMENT_SET_NO": 999,
    "REV_AT_EPOCH": 11040,
    "BSTAR": 0.0,
    "MEAN_MOTION_DOT": -3.523e-05,
    "MEAN_MOTION_DDOT": 0.0,
    "TLE_LINE1": "1 58372U 23177X   25315.27337692 -.00003523  00000+0 -24561-3 0  9995",
    "TLE_LINE2": "2 58372  43.0041 274.9621 0001264 266.4763  93.5935 15.02568664110400",
    "COMMENT": "Grouped by shell and plane from TLE"
  }
]